<?xml version="1.0" encoding="UTF-8"?>
<kml xmlns="http://www.opengis.net/kml/2.2">
  <Document>
    <name>Campos de Golf Federados en México | Federación Mexicana de Golf</name>
    <description>Campos de golf federados en México.</description>
    <Style id="icon-1899-0288D1-nodesc-normal">
      <IconStyle>
        <color>ffd18802</color>
        <scale>1</scale>
        <Icon>
          <href>https://www.gstatic.com/mapspro/images/stock/503-wht-blank_maps.png</href>
        </Icon>
        <hotSpot x="32" xunits="pixels" y="64" yunits="insetPixels"/>
      </IconStyle>
      <LabelStyle>
        <scale>0</scale>
      </LabelStyle>
      <BalloonStyle>
        <text><![CDATA[<h3>$[name]</h3>]]></text>
      </BalloonStyle>
    </Style>
    <Style id="icon-1899-0288D1-nodesc-highlight">
      <IconStyle>
        <color>ffd18802</color>
        <scale>1</scale>
        <Icon>
          <href>https://www.gstatic.com/mapspro/images/stock/503-wht-blank_maps.png</href>
        </Icon>
        <hotSpot x="32" xunits="pixels" y="64" yunits="insetPixels"/>
      </IconStyle>
      <LabelStyle>
        <scale>1</scale>
      </LabelStyle>
      <BalloonStyle>
        <text><![CDATA[<h3>$[name]</h3>]]></text>
      </BalloonStyle>
    </Style>
    <StyleMap id="icon-1899-0288D1-nodesc">
      <Pair>
        <key>normal</key>
        <styleUrl>#icon-1899-0288D1-nodesc-normal</styleUrl>
      </Pair>
      <Pair>
        <key>highlight</key>
        <styleUrl>#icon-1899-0288D1-nodesc-highlight</styleUrl>
      </Pair>
    </StyleMap>
    <Folder>
      <name>Campos Públicos, Turísticos y Resorts de Golf</name>
      <Placemark>
        <name>El Cortés Golf Club</name>
        <styleUrl>#icon-1899-0288D1-nodesc</styleUrl>
        <Point>
          <coordinates>
            -110.3029533,24.2219271,0
          </coordinates>
        </Point>
      </Placemark>
      <Placemark>
        <name>Punta Mita Golf Club</name>
        <styleUrl>#icon-1899-0288D1-nodesc</styleUrl>
        <Point>
          <coordinates>
            -105.5365643,20.7706471,0
          </coordinates>
        </Point>
      </Placemark>
      <Placemark>
        <name><![CDATA[Bajamar Golf & Resort]]></name>
        <styleUrl>#icon-1899-0288D1-nodesc</styleUrl>
        <Point>
          <coordinates>
            -116.8721905,32.0165661,0
          </coordinates>
        </Point>
      </Placemark>
      <Placemark>
        <name><![CDATA[Palma Real Golf & Beach Club
]]></name>
        <styleUrl>#icon-1899-0288D1-nodesc</styleUrl>
        <Point>
          <coordinates>
            -101.5944486,17.6548593,0
          </coordinates>
        </Point>
      </Placemark>
      <Placemark>
        <name>Cabo San Lucas Country Club</name>
        <styleUrl>#icon-1899-0288D1-nodesc</styleUrl>
        <Point>
          <coordinates>
            -109.9081472,22.9152188,0
          </coordinates>
        </Point>
      </Placemark>
      <Placemark>
        <name>Danzante Bay Golf Club
</name>
        <styleUrl>#icon-1899-0288D1-nodesc</styleUrl>
        <Point>
          <coordinates>
            -111.2342107,25.7155844,0
          </coordinates>
        </Point>
      </Placemark>
      <Placemark>
        <name>Iberostar Cancun Golf Club
</name>
        <styleUrl>#icon-1899-0288D1-nodesc</styleUrl>
        <Point>
          <coordinates>
            -86.7806424,21.063988,0
          </coordinates>
        </Point>
      </Placemark>
      <Placemark>
        <name>Iberostar Playa Paraíso Golf Club</name>
        <styleUrl>#icon-1899-0288D1-nodesc</styleUrl>
        <Point>
          <coordinates>
            -86.9662515,20.7631742,0
          </coordinates>
        </Point>
      </Placemark>
      <Placemark>
        <name><![CDATA[Moon Palace Spa & Club Golf]]></name>
        <styleUrl>#icon-1899-0288D1-nodesc</styleUrl>
        <Point>
          <coordinates>
            -86.8401399,20.9885198,0
          </coordinates>
        </Point>
      </Placemark>
      <Placemark>
        <name>PGA Riviera Maya</name>
        <styleUrl>#icon-1899-0288D1-nodesc</styleUrl>
        <Point>
          <coordinates>
            -87.3399548,20.3751061,0
          </coordinates>
        </Point>
      </Placemark>
      <Placemark>
        <name>Playa Mujeres Golf Club
</name>
        <styleUrl>#icon-1899-0288D1-nodesc</styleUrl>
        <Point>
          <coordinates>
            -86.8204333,21.2581737,0
          </coordinates>
        </Point>
      </Placemark>
      <Placemark>
        <name>Higuera Golf Course</name>
        <styleUrl>#icon-1899-0288D1-nodesc</styleUrl>
        <Point>
          <coordinates>
            -105.4828852,20.7979513,0
          </coordinates>
        </Point>
      </Placemark>
      <Placemark>
        <name>Turtle Dunes Country Club</name>
        <styleUrl>#icon-1899-0288D1-nodesc</styleUrl>
        <Point>
          <coordinates>
            -99.813308,16.7896835,0
          </coordinates>
        </Point>
      </Placemark>
      <Placemark>
        <name>Tres Vidas Golf Club Acapulco</name>
        <styleUrl>#icon-1899-0288D1-nodesc</styleUrl>
        <Point>
          <coordinates>
            -99.7234035,16.7256748,0
          </coordinates>
        </Point>
      </Placemark>
      <Placemark>
        <name>Vidanta Golf Course at Vidanta Acapulco</name>
        <styleUrl>#icon-1899-0288D1-nodesc</styleUrl>
        <Point>
          <coordinates>
            -99.7918775,16.7764688,0
          </coordinates>
        </Point>
      </Placemark>
      <Placemark>
        <name>Mayan Palace Golf</name>
        <styleUrl>#icon-1899-0288D1-nodesc</styleUrl>
        <Point>
          <coordinates>
            -99.7999603,16.7855256,0
          </coordinates>
        </Point>
      </Placemark>
      <Placemark>
        <name>Princess Golf Course - Mundo Imperial
</name>
        <styleUrl>#icon-1899-0288D1-nodesc</styleUrl>
        <Point>
          <coordinates>
            -99.8145622,16.7892654,0
          </coordinates>
        </Point>
      </Placemark>
      <Placemark>
        <name>Vidanta Golf at Vidanta Los Cabos</name>
        <styleUrl>#icon-1899-0288D1-nodesc</styleUrl>
        <Point>
          <coordinates>
            -109.7043386,23.0480826,0
          </coordinates>
        </Point>
      </Placemark>
      <Placemark>
        <name>Vidanta Golf Puerto Peñasco</name>
        <styleUrl>#icon-1899-0288D1-nodesc</styleUrl>
        <Point>
          <coordinates>
            -113.2473992,31.2455856,0
          </coordinates>
        </Point>
      </Placemark>
      <Placemark>
        <name>Nicklaus Design Golf Course at Vidanta Riviera Maya</name>
        <styleUrl>#icon-1899-0288D1-nodesc</styleUrl>
        <Point>
          <coordinates>
            -86.956215,20.766515,0
          </coordinates>
        </Point>
      </Placemark>
      <Placemark>
        <name>The Lakes Course at Vidanta Nuevo Vallarta</name>
        <styleUrl>#icon-1899-0288D1-nodesc</styleUrl>
        <Point>
          <coordinates>
            -105.2813162,20.6826252,0
          </coordinates>
        </Point>
      </Placemark>
      <Placemark>
        <name>Vidanta Greg Norman Golf Course</name>
        <styleUrl>#icon-1899-0288D1-nodesc</styleUrl>
        <Point>
          <coordinates>
            -105.2663133,20.6820374,0
          </coordinates>
        </Point>
      </Placemark>
      <Placemark>
        <name>Club de Golf Santa Margarita</name>
        <styleUrl>#icon-1899-0288D1-nodesc</styleUrl>
        <Point>
          <coordinates>
            -101.4091073,20.6864193,0
          </coordinates>
        </Point>
      </Placemark>
      <Placemark>
        <name>Villa Rica Golf Club</name>
        <styleUrl>#icon-1899-0288D1-nodesc</styleUrl>
        <Point>
          <coordinates>
            -96.1006073,19.0771952,0
          </coordinates>
        </Point>
      </Placemark>
      <Placemark>
        <name>Madeiras Country Club</name>
        <styleUrl>#icon-1899-0288D1-nodesc</styleUrl>
        <Point>
          <coordinates>
            -99.2668189,19.6169144,0
          </coordinates>
        </Point>
      </Placemark>
      <Placemark>
        <name>Paradise Village´s El Tigre Golf Course</name>
        <styleUrl>#icon-1899-0288D1-nodesc</styleUrl>
        <Point>
          <coordinates>
            -105.282474,20.699214,0
          </coordinates>
        </Point>
      </Placemark>
      <Placemark>
        <name>El Camaleón Golf Course at Mayakoba</name>
        <styleUrl>#icon-1899-0288D1-nodesc</styleUrl>
        <Point>
          <coordinates>
            -87.0311157,20.6897606,0
          </coordinates>
        </Point>
      </Placemark>
      <Placemark>
        <name>Zibatá Golf</name>
        <styleUrl>#icon-1899-0288D1-nodesc</styleUrl>
        <Point>
          <coordinates>
            -100.3377151,20.6825675,0
          </coordinates>
        </Point>
      </Placemark>
      <Placemark>
        <name>Club de Golf y Deportivo Las Aves
</name>
        <styleUrl>#icon-1899-0288D1-nodesc</styleUrl>
        <Point>
          <coordinates>
            -100.039566,25.7527294,0
          </coordinates>
        </Point>
      </Placemark>
      <Placemark>
        <name>Club Campestre El Copal
</name>
        <styleUrl>#icon-1899-0288D1-nodesc</styleUrl>
        <Point>
          <coordinates>
            -99.1051378,19.5302791,0
          </coordinates>
        </Point>
      </Placemark>
      <Placemark>
        <name>Club Campestre Lomas de Cocoyoc</name>
        <styleUrl>#icon-1899-0288D1-nodesc</styleUrl>
        <Point>
          <coordinates>
            -98.9418813,18.9146538,0
          </coordinates>
        </Point>
      </Placemark>
      <Placemark>
        <name>Gary Player Signature Golf Club El Cortés</name>
        <styleUrl>#icon-1899-0288D1-nodesc</styleUrl>
        <Point>
          <coordinates>
            -110.3029533,24.2219271,0
          </coordinates>
        </Point>
      </Placemark>
      <Placemark>
        <name>Vista Vallarta Club de Golf</name>
        <styleUrl>#icon-1899-0288D1-nodesc</styleUrl>
        <Point>
          <coordinates>
            -105.1921203,20.6867932,0
          </coordinates>
        </Point>
      </Placemark>
    </Folder>
    <Folder>
      <name>Campos Semi-Privados</name>
      <Placemark>
        <name>Country Club de Chapala</name>
        <styleUrl>#icon-1899-0288D1-nodesc</styleUrl>
        <Point>
          <coordinates>
            -103.1216892,20.3354909,0
          </coordinates>
        </Point>
      </Placemark>
      <Placemark>
        <name>Club Campestre, Tijuana</name>
        <styleUrl>#icon-1899-0288D1-nodesc</styleUrl>
        <Point>
          <coordinates>
            -117.0016939,32.5110731,0
          </coordinates>
        </Point>
      </Placemark>
      <Placemark>
        <name>Club Refineria Madero</name>
        <styleUrl>#icon-1899-0288D1-nodesc</styleUrl>
        <Point>
          <coordinates>
            -97.8103013,22.2732222,0
          </coordinates>
        </Point>
      </Placemark>
      <Placemark>
        <name>AC Club Campestre de Aguascalientes</name>
        <styleUrl>#icon-1899-0288D1-nodesc</styleUrl>
        <Point>
          <coordinates>
            -102.3195123,21.9204415,0
          </coordinates>
        </Point>
      </Placemark>
      <Placemark>
        <name>Avándaro Golf Club</name>
        <styleUrl>#icon-1899-0288D1-nodesc</styleUrl>
        <Point>
          <coordinates>
            -100.1301596,19.1584698,0
          </coordinates>
        </Point>
      </Placemark>
      <Placemark>
        <name>Atlas Country Club</name>
        <styleUrl>#icon-1899-0288D1-nodesc</styleUrl>
        <Point>
          <coordinates>
            -103.3056739,20.5743783,0
          </coordinates>
        </Point>
      </Placemark>
      <Placemark>
        <name>Las Cañadas Country Club</name>
        <styleUrl>#icon-1899-0288D1-nodesc</styleUrl>
        <Point>
          <coordinates>
            -103.370138,20.7815379,0
          </coordinates>
        </Point>
      </Placemark>
      <Placemark>
        <name>Club de Golf Malanquin
</name>
        <styleUrl>#icon-1899-0288D1-nodesc</styleUrl>
        <Point>
          <coordinates>
            -100.7641993,20.8966124,0
          </coordinates>
        </Point>
      </Placemark>
      <Placemark>
        <name>Coral Golf Resort
</name>
        <styleUrl>#icon-1899-0288D1-nodesc</styleUrl>
        <Point>
          <coordinates>
            -98.8875966,19.3411988,0
          </coordinates>
        </Point>
      </Placemark>
      <Placemark>
        <name>Club de Golf Los Tabachines</name>
        <styleUrl>#icon-1899-0288D1-nodesc</styleUrl>
        <Point>
          <coordinates>
            -99.2173777,18.8929663,0
          </coordinates>
        </Point>
      </Placemark>
      <Placemark>
        <name>Club de Golf de Zacatecas
</name>
        <styleUrl>#icon-1899-0288D1-nodesc</styleUrl>
        <Point>
          <coordinates>
            -102.5320136,22.7603352,0
          </coordinates>
        </Point>
      </Placemark>
      <Placemark>
        <name>Club Campestre de Mexicali</name>
        <styleUrl>#icon-1899-0288D1-nodesc</styleUrl>
        <Point>
          <coordinates>
            -115.4419174,32.5758666,0
          </coordinates>
        </Point>
      </Placemark>
      <Placemark>
        <name>Club de Golf San Gil</name>
        <styleUrl>#icon-1899-0288D1-nodesc</styleUrl>
        <Point>
          <coordinates>
            -100.0705429,20.4493764,0
          </coordinates>
        </Point>
      </Placemark>
      <Placemark>
        <name>Campestre el Cristo</name>
        <styleUrl>#icon-1899-0288D1-nodesc</styleUrl>
        <Point>
          <coordinates>
            -98.4225347,18.8824893,0
          </coordinates>
        </Point>
      </Placemark>
      <Placemark>
        <name>Club de Golf Pachuca
</name>
        <styleUrl>#icon-1899-0288D1-nodesc</styleUrl>
        <Point>
          <coordinates>
            -98.768586,20.0777571,0
          </coordinates>
        </Point>
      </Placemark>
      <Placemark>
        <name>Altozano El Nuevo Colima
</name>
        <styleUrl>#icon-1899-0288D1-nodesc</styleUrl>
        <Point>
          <coordinates>
            -103.6688431,19.3176364,0
          </coordinates>
        </Point>
      </Placemark>
      <Placemark>
        <name>La Esmeralda Country Club</name>
        <styleUrl>#icon-1899-0288D1-nodesc</styleUrl>
        <Point>
          <coordinates>
            -98.9325282,19.7257399,0
          </coordinates>
        </Point>
      </Placemark>
      <Placemark>
        <name>Club de Golf Izar
</name>
        <styleUrl>#icon-1899-0288D1-nodesc</styleUrl>
        <Point>
          <coordinates>
            -100.1605002,19.1675357,0
          </coordinates>
        </Point>
      </Placemark>
      <Placemark>
        <name>Azul Talavera Country Club
</name>
        <styleUrl>#icon-1899-0288D1-nodesc</styleUrl>
        <Point>
          <coordinates>
            -103.3707147,25.5176111,0
          </coordinates>
        </Point>
      </Placemark>
      <Placemark>
        <name>Las Cruces Golf</name>
        <styleUrl>#icon-1899-0288D1-nodesc</styleUrl>
        <Point>
          <coordinates>
            -100.1145491,25.7956258,0
          </coordinates>
        </Point>
      </Placemark>
      <Placemark>
        <name>El Bosque Country Club</name>
        <styleUrl>#icon-1899-0288D1-nodesc</styleUrl>
        <Point>
          <coordinates>
            -101.7221529,21.1984354,0
          </coordinates>
        </Point>
      </Placemark>
      <Placemark>
        <name>Puerto Cancún Golf Club
</name>
        <styleUrl>#icon-1899-0288D1-nodesc</styleUrl>
        <Point>
          <coordinates>
            -86.8123397,21.166603,0
          </coordinates>
        </Point>
      </Placemark>
      <Placemark>
        <name>Punta Tiburón Country Club</name>
        <styleUrl>#icon-1899-0288D1-nodesc</styleUrl>
        <Point>
          <coordinates>
            -96.0955649,19.0649246,0
          </coordinates>
        </Point>
      </Placemark>
      <Placemark>
        <name>Ciudad Del Sol Club de Golf
</name>
        <styleUrl>#icon-1899-0288D1-nodesc</styleUrl>
        <Point>
          <coordinates>
            -99.9806107,25.2508052,0
          </coordinates>
        </Point>
      </Placemark>
      <Placemark>
        <name>Campeche Country Club
</name>
        <styleUrl>#icon-1899-0288D1-nodesc</styleUrl>
        <Point>
          <coordinates>
            -90.6279734,19.7877067,0
          </coordinates>
        </Point>
      </Placemark>
      <Placemark>
        <name>Paraíso Del Mar Golf Club
</name>
        <styleUrl>#icon-1899-0288D1-nodesc</styleUrl>
        <Point>
          <coordinates>
            -110.3322517,24.1762734,0
          </coordinates>
        </Point>
      </Placemark>
      <Placemark>
        <name>Río Grande Country Club
</name>
        <styleUrl>#icon-1899-0288D1-nodesc</styleUrl>
        <Point>
          <coordinates>
            -100.5227355,28.5802268,0
          </coordinates>
        </Point>
      </Placemark>
      <Placemark>
        <name>Marina Vallarta Golf Club</name>
        <styleUrl>#icon-1899-0288D1-nodesc</styleUrl>
        <Point>
          <coordinates>
            -105.2543331,20.6678227,0
          </coordinates>
        </Point>
      </Placemark>
      <Placemark>
        <name>Alquerías Club de Golf
</name>
        <styleUrl>#icon-1899-0288D1-nodesc</styleUrl>
        <Point>
          <coordinates>
            -100.865095,22.0883747,0
          </coordinates>
        </Point>
      </Placemark>
      <Placemark>
        <name>Club Campestre de Reynosa</name>
        <styleUrl>#icon-1899-0288D1-nodesc</styleUrl>
        <Point>
          <coordinates>
            -98.4110412,26.1445465,0
          </coordinates>
        </Point>
      </Placemark>
      <Placemark>
        <name>Paraíso Country Club</name>
        <styleUrl>#icon-1899-0288D1-nodesc</styleUrl>
        <Point>
          <coordinates>
            -99.2042633,18.8273072,0
          </coordinates>
        </Point>
      </Placemark>
      <Placemark>
        <name><![CDATA[El Cid Golf & Country Club]]></name>
        <styleUrl>#icon-1899-0288D1-nodesc</styleUrl>
        <Point>
          <coordinates>
            -106.4555635,23.2507194,0
          </coordinates>
        </Point>
      </Placemark>
      <Placemark>
        <name>Gran Coyote Golf</name>
        <styleUrl>#icon-1899-0288D1-nodesc</styleUrl>
        <Point>
          <coordinates>
            -87.045708,20.663465,0
          </coordinates>
        </Point>
      </Placemark>
      <Placemark>
        <name>NAUKA</name>
        <styleUrl>#icon-1899-0288D1-nodesc</styleUrl>
        <Point>
          <coordinates>
            -105.2218504,21.0940222,0
          </coordinates>
        </Point>
      </Placemark>
      <Placemark>
        <name>Club Campestre Nayar</name>
        <styleUrl>#icon-1899-0288D1-nodesc</styleUrl>
        <Point>
          <coordinates>
            -104.9344177,21.5170059,0
          </coordinates>
        </Point>
      </Placemark>
      <Placemark>
        <name>The Springs Golf Club</name>
        <styleUrl>#icon-1899-0288D1-nodesc</styleUrl>
        <Point>
          <coordinates>
            -107.5936985,30.0516019,0
          </coordinates>
        </Point>
      </Placemark>
    </Folder>
    <Folder>
      <name>Clubes Privados de Golf</name>
      <Placemark>
        <name>Club Campestre Tampico</name>
        <styleUrl>#icon-1899-0288D1-nodesc</styleUrl>
        <Point>
          <coordinates>
            -97.8823132,22.2560297,0
          </coordinates>
        </Point>
      </Placemark>
      <Placemark>
        <name>Club de Golf Chapultepec</name>
        <styleUrl>#icon-1899-0288D1-nodesc</styleUrl>
        <Point>
          <coordinates>
            -99.2444458,19.4303607,0
          </coordinates>
        </Point>
      </Placemark>
      <Placemark>
        <name><![CDATA[Amanali Country Club & Nautica]]></name>
        <styleUrl>#icon-1899-0288D1-nodesc</styleUrl>
        <Point>
          <coordinates>
            -99.332126,19.9599847,0
          </coordinates>
        </Point>
      </Placemark>
      <Placemark>
        <name>Guadalajara Country Club</name>
        <styleUrl>#icon-1899-0288D1-nodesc</styleUrl>
        <Point>
          <coordinates>
            -103.370406,20.7043945,0
          </coordinates>
        </Point>
      </Placemark>
      <Placemark>
        <name>Club Campestre Nuevo Laredo</name>
        <styleUrl>#icon-1899-0288D1-nodesc</styleUrl>
        <Point>
          <coordinates>
            -99.4996337,27.4542361,0
          </coordinates>
        </Point>
      </Placemark>
      <Placemark>
        <name>Club de Golf El Socorro A.C.</name>
        <styleUrl>#icon-1899-0288D1-nodesc</styleUrl>
        <Point>
          <coordinates>
            -101.4109192,26.900987,0
          </coordinates>
        </Point>
      </Placemark>
      <Placemark>
        <name>Club de Golf México</name>
        <styleUrl>#icon-1899-0288D1-nodesc</styleUrl>
        <Point>
          <coordinates>
            -99.1553016,19.2805888,0
          </coordinates>
        </Point>
      </Placemark>
      <Placemark>
        <name>Club Campestre Monterrey A.C.</name>
        <styleUrl>#icon-1899-0288D1-nodesc</styleUrl>
        <Point>
          <coordinates>
            -100.3491181,25.6430765,0
          </coordinates>
        </Point>
      </Placemark>
      <Placemark>
        <name>Club Campestre de Querétaro
</name>
        <styleUrl>#icon-1899-0288D1-nodesc</styleUrl>
        <Point>
          <coordinates>
            -100.4077776,20.5695726,0
          </coordinates>
        </Point>
      </Placemark>
      <Placemark>
        <name>Club Campestre de Saltillo</name>
        <styleUrl>#icon-1899-0288D1-nodesc</styleUrl>
        <Point>
          <coordinates>
            -100.9523096,25.4965229,0
          </coordinates>
        </Point>
      </Placemark>
      <Placemark>
        <name>Club de Golf Valle Alto</name>
        <styleUrl>#icon-1899-0288D1-nodesc</styleUrl>
        <Point>
          <coordinates>
            -100.2689208,25.5701503,0
          </coordinates>
        </Point>
      </Placemark>
      <Placemark>
        <name>Club Campestre Juarez</name>
        <styleUrl>#icon-1899-0288D1-nodesc</styleUrl>
        <Point>
          <coordinates>
            -106.4108464,31.7197289,0
          </coordinates>
        </Point>
      </Placemark>
      <Placemark>
        <name>Club Campestre Celaya S.A. De C.V.</name>
        <styleUrl>#icon-1899-0288D1-nodesc</styleUrl>
        <Point>
          <coordinates>
            -100.7899703,20.5197734,0
          </coordinates>
        </Point>
      </Placemark>
      <Placemark>
        <name>Campestre Chihuahua Country Club</name>
        <styleUrl>#icon-1899-0288D1-nodesc</styleUrl>
        <Point>
          <coordinates>
            -106.1083908,28.63451,0
          </coordinates>
        </Point>
      </Placemark>
      <Placemark>
        <name>Club de Golf Acapulco</name>
        <styleUrl>#icon-1899-0288D1-nodesc</styleUrl>
        <Point>
          <coordinates>
            -99.8583755,16.8556404,0
          </coordinates>
        </Point>
      </Placemark>
      <Placemark>
        <name>Club de Golf La Hacienda</name>
        <styleUrl>#icon-1899-0288D1-nodesc</styleUrl>
        <Point>
          <coordinates>
            -99.2347087,19.5731521,0
          </coordinates>
        </Point>
      </Placemark>
      <Placemark>
        <name>Club Campestre de León
</name>
        <styleUrl>#icon-1899-0288D1-nodesc</styleUrl>
        <Point>
          <coordinates>
            -101.7027879,21.164714,0
          </coordinates>
        </Point>
      </Placemark>
      <Placemark>
        <name>Club Campestre de San Luis</name>
        <styleUrl>#icon-1899-0288D1-nodesc</styleUrl>
        <Point>
          <coordinates>
            -101.0077962,22.1602025,0
          </coordinates>
        </Point>
      </Placemark>
      <Placemark>
        <name>Club Campestre Cordobés</name>
        <styleUrl>#icon-1899-0288D1-nodesc</styleUrl>
        <Point>
          <coordinates>
            -96.9544649,18.9137145,0
          </coordinates>
        </Point>
      </Placemark>
      <Placemark>
        <name>Club de Golf de Xalapa</name>
        <styleUrl>#icon-1899-0288D1-nodesc</styleUrl>
        <Point>
          <coordinates>
            -96.7815099,19.4802906,0
          </coordinates>
        </Point>
      </Placemark>
      <Placemark>
        <name><![CDATA[Bellavista Golf & Country Club]]></name>
        <styleUrl>#icon-1899-0288D1-nodesc</styleUrl>
        <Point>
          <coordinates>
            -99.2446093,19.5272007,0
          </coordinates>
        </Point>
      </Placemark>
      <Placemark>
        <name>Club de Golf Campestre de Morelia</name>
        <styleUrl>#icon-1899-0288D1-nodesc</styleUrl>
        <Point>
          <coordinates>
            -101.1585021,19.6816559,0
          </coordinates>
        </Point>
      </Placemark>
      <Placemark>
        <name>Club Campestre Victoria</name>
        <styleUrl>#icon-1899-0288D1-nodesc</styleUrl>
        <Point>
          <coordinates>
            -99.1321943,23.7631341,0
          </coordinates>
        </Point>
      </Placemark>
      <Placemark>
        <name>Club Campestre Riama</name>
        <styleUrl>#icon-1899-0288D1-nodesc</styleUrl>
        <Point>
          <coordinates>
            -101.1864283,20.5800226,0
          </coordinates>
        </Point>
      </Placemark>
      <Placemark>
        <name>Country Club de Culiacán S.A. de C.V.</name>
        <styleUrl>#icon-1899-0288D1-nodesc</styleUrl>
        <Point>
          <coordinates>
            -107.4290313,24.7923793,0
          </coordinates>
        </Point>
      </Placemark>
      <Placemark>
        <name>Club Campestre Coatzacoalcos</name>
        <styleUrl>#icon-1899-0288D1-nodesc</styleUrl>
        <Point>
          <coordinates>
            -94.4663524,18.1417569,0
          </coordinates>
        </Point>
      </Placemark>
      <Placemark>
        <name>Club de Golf Santa Anita</name>
        <styleUrl>#icon-1899-0288D1-nodesc</styleUrl>
        <Point>
          <coordinates>
            -103.4699635,20.567017,0
          </coordinates>
        </Point>
      </Placemark>
      <Placemark>
        <name>Club de Golf Valle Imperial</name>
        <styleUrl>#icon-1899-0288D1-nodesc</styleUrl>
        <Point>
          <coordinates>
            -103.434098,20.7825695,0
          </coordinates>
        </Point>
      </Placemark>
      <Placemark>
        <name>Club de Golf San Carlos S.A. de C.V.</name>
        <styleUrl>#icon-1899-0288D1-nodesc</styleUrl>
        <Point>
          <coordinates>
            -99.6116236,19.2728669,0
          </coordinates>
        </Point>
      </Placemark>
      <Placemark>
        <name>Club Deportivo Campestre Torreón</name>
        <styleUrl>#icon-1899-0288D1-nodesc</styleUrl>
        <Point>
          <coordinates>
            -103.4109545,25.5251086,0
          </coordinates>
        </Point>
      </Placemark>
      <Placemark>
        <name>Club Campestre Chiluca</name>
        <styleUrl>#icon-1899-0288D1-nodesc</styleUrl>
        <Point>
          <coordinates>
            -99.308116,19.544202,0
          </coordinates>
        </Point>
      </Placemark>
      <Placemark>
        <name>Golf club Vallescondido</name>
        <styleUrl>#icon-1899-0288D1-nodesc</styleUrl>
        <Point>
          <coordinates>
            -99.3069786,19.5614362,0
          </coordinates>
        </Point>
      </Placemark>
      <Placemark>
        <name>Santa Fe Social Golf Club</name>
        <styleUrl>#icon-1899-0288D1-nodesc</styleUrl>
        <Point>
          <coordinates>
            -99.2487744,18.7344062,0
          </coordinates>
        </Point>
      </Placemark>
      <Placemark>
        <name>San Francisco Country Club</name>
        <styleUrl>#icon-1899-0288D1-nodesc</styleUrl>
        <Point>
          <coordinates>
            -106.1331004,28.6605679,0
          </coordinates>
        </Point>
      </Placemark>
      <Placemark>
        <name>Club Campestre Lourdes</name>
        <styleUrl>#icon-1899-0288D1-nodesc</styleUrl>
        <Point>
          <coordinates>
            -100.997168,25.385686,0
          </coordinates>
        </Point>
      </Placemark>
      <Placemark>
        <name>Club Campestre Lomas de Cocoyoc</name>
        <styleUrl>#icon-1899-0288D1-nodesc</styleUrl>
        <Point>
          <coordinates>
            -98.9418813,18.9146538,0
          </coordinates>
        </Point>
      </Placemark>
      <Placemark>
        <name>Golf Juriquilla</name>
        <styleUrl>#icon-1899-0288D1-nodesc</styleUrl>
        <Point>
          <coordinates>
            -100.4620957,20.7070972,0
          </coordinates>
        </Point>
      </Placemark>
      <Placemark>
        <name>Club de Golf Tequisquiapan</name>
        <styleUrl>#icon-1899-0288D1-nodesc</styleUrl>
        <Point>
          <coordinates>
            -99.8968129,20.5405522,0
          </coordinates>
        </Point>
      </Placemark>
      <Placemark>
        <name>Club Campestre de Tuxtla</name>
        <styleUrl>#icon-1899-0288D1-nodesc</styleUrl>
        <Point>
          <coordinates>
            -93.1956818,16.7530279,0
          </coordinates>
        </Point>
      </Placemark>
      <Placemark>
        <name>Club de Golf las Fuentes</name>
        <styleUrl>#icon-1899-0288D1-nodesc</styleUrl>
        <Point>
          <coordinates>
            -98.2336028,19.0885329,0
          </coordinates>
        </Point>
      </Placemark>
      <Placemark>
        <name>Club Campestre Villahermosa</name>
        <styleUrl>#icon-1899-0288D1-nodesc</styleUrl>
        <Point>
          <coordinates>
            -92.9483489,18.0040702,0
          </coordinates>
        </Point>
      </Placemark>
      <Placemark>
        <name>Vista Verde Country Club
</name>
        <styleUrl>#icon-1899-0288D1-nodesc</styleUrl>
        <Point>
          <coordinates>
            -97.4084742,18.4836486,0
          </coordinates>
        </Point>
      </Placemark>
      <Placemark>
        <name>Missions Club Campestre</name>
        <styleUrl>#icon-1899-0288D1-nodesc</styleUrl>
        <Point>
          <coordinates>
            -100.1916881,25.5179474,0
          </coordinates>
        </Point>
      </Placemark>
      <Placemark>
        <name>Club de Golf los Encinos</name>
        <styleUrl>#icon-1899-0288D1-nodesc</styleUrl>
        <Point>
          <coordinates>
            -99.4802517,19.2925977,0
          </coordinates>
        </Point>
      </Placemark>
      <Placemark>
        <name>CCC Playa Palmas
</name>
        <styleUrl>#icon-1899-0288D1-nodesc</styleUrl>
        <Point>
          <coordinates>
            -91.7822639,18.6686295,0
          </coordinates>
        </Point>
      </Placemark>
      <Placemark>
        <name>Club de Golf Pulgas Pandas
</name>
        <styleUrl>#icon-1899-0288D1-nodesc</styleUrl>
        <Point>
          <coordinates>
            -102.3004841,21.9133151,0
          </coordinates>
        </Point>
      </Placemark>
      <Placemark>
        <name>Club Campestre de Durango</name>
        <styleUrl>#icon-1899-0288D1-nodesc</styleUrl>
        <Point>
          <coordinates>
            -104.6607268,23.972209,0
          </coordinates>
        </Point>
      </Placemark>
      <Placemark>
        <name>Lomas Country Club</name>
        <styleUrl>#icon-1899-0288D1-nodesc</styleUrl>
        <Point>
          <coordinates>
            -99.2924191,19.4047023,0
          </coordinates>
        </Point>
      </Placemark>
      <Placemark>
        <name>Club Campestre El Campanario B.C.</name>
        <styleUrl>#icon-1899-0288D1-nodesc</styleUrl>
        <Point>
          <coordinates>
            -100.3431049,20.6114335,0
          </coordinates>
        </Point>
      </Placemark>
      <Placemark>
        <name>Club de Golf Malinalco</name>
        <styleUrl>#icon-1899-0288D1-nodesc</styleUrl>
        <Point>
          <coordinates>
            -99.4742137,18.9877033,0
          </coordinates>
        </Point>
      </Placemark>
      <Placemark>
        <name>Tres Vidas Golf Club Acapulco</name>
        <styleUrl>#icon-1899-0288D1-nodesc</styleUrl>
        <Point>
          <coordinates>
            -99.7234035,16.7256748,0
          </coordinates>
        </Point>
      </Placemark>
      <Placemark>
        <name>Alamo Country Club</name>
        <styleUrl>#icon-1899-0288D1-nodesc</styleUrl>
        <Point>
          <coordinates>
            -100.895788,20.552816,0
          </coordinates>
        </Point>
      </Placemark>
      <Placemark>
        <name>Club de Golf La Hacienda de León</name>
        <styleUrl>#icon-1899-0288D1-nodesc</styleUrl>
        <Point>
          <coordinates>
            -101.605128,21.0895017,0
          </coordinates>
        </Point>
      </Placemark>
      <Placemark>
        <name><![CDATA[Terralta Golf & Country Club]]></name>
        <styleUrl>#icon-1899-0288D1-nodesc</styleUrl>
        <Point>
          <coordinates>
            -100.6059705,25.7178094,0
          </coordinates>
        </Point>
      </Placemark>
      <Placemark>
        <name>Rancho Avándaro Country Club</name>
        <styleUrl>#icon-1899-0288D1-nodesc</styleUrl>
        <Point>
          <coordinates>
            -100.0513511,19.1540279,0
          </coordinates>
        </Point>
      </Placemark>
      <Placemark>
        <name>Bosques Club De Golf
</name>
        <styleUrl>#icon-1899-0288D1-nodesc</styleUrl>
        <Point>
          <coordinates>
            -99.2774582,19.3773933,0
          </coordinates>
        </Point>
      </Placemark>
      <Placemark>
        <name>Altozano Morelia Golf Bosque Monarca
</name>
        <styleUrl>#icon-1899-0288D1-nodesc</styleUrl>
        <Point>
          <coordinates>
            -101.1654169,19.6409803,0
          </coordinates>
        </Point>
      </Placemark>
      <Placemark>
        <name>Club de Golf Vista Hermosa</name>
        <styleUrl>#icon-1899-0288D1-nodesc</styleUrl>
        <Point>
          <coordinates>
            -96.7732912,17.1801544,0
          </coordinates>
        </Point>
      </Placemark>
      <Placemark>
        <name>Tajin Golf Club</name>
        <styleUrl>#icon-1899-0288D1-nodesc</styleUrl>
        <Point>
          <coordinates>
            -97.4915988,20.4887945,0
          </coordinates>
        </Point>
      </Placemark>
      <Placemark>
        <name>La Vista Country Club</name>
        <styleUrl>#icon-1899-0288D1-nodesc</styleUrl>
        <Point>
          <coordinates>
            -98.2546344,19.0082973,0
          </coordinates>
        </Point>
      </Placemark>
      <Placemark>
        <name>Club Campestre de Puebla</name>
        <styleUrl>#icon-1899-0288D1-nodesc</styleUrl>
        <Point>
          <coordinates>
            -98.2334886,19.0133414,0
          </coordinates>
        </Point>
      </Placemark>
      <Placemark>
        <name><![CDATA[Balvanera Polo Golf & Country Club]]></name>
        <styleUrl>#icon-1899-0288D1-nodesc</styleUrl>
        <Point>
          <coordinates>
            -100.469651,20.540511,0
          </coordinates>
        </Point>
      </Placemark>
      <Placemark>
        <name>Club de Golf Lagunas de Miralta</name>
        <styleUrl>#icon-1899-0288D1-nodesc</styleUrl>
        <Point>
          <coordinates>
            -97.9007367,22.3510297,0
          </coordinates>
        </Point>
      </Placemark>
      <Placemark>
        <name><![CDATA[Gran Reserva Golf Resort & Country Club]]></name>
        <styleUrl>#icon-1899-0288D1-nodesc</styleUrl>
        <Point>
          <coordinates>
            -99.681842,18.850645,0
          </coordinates>
        </Point>
      </Placemark>
      <Placemark>
        <name>Club de Golf Cañada de Santa Fe</name>
        <styleUrl>#icon-1899-0288D1-nodesc</styleUrl>
        <Point>
          <coordinates>
            -99.2694116,19.3517868,0
          </coordinates>
        </Point>
      </Placemark>
      <Placemark>
        <name>Bosque Real Country Club
</name>
        <styleUrl>#icon-1899-0288D1-nodesc</styleUrl>
        <Point>
          <coordinates>
            -99.2877439,19.4208935,0
          </coordinates>
        </Point>
      </Placemark>
      <Placemark>
        <name>Country Club Mante
</name>
        <styleUrl>#icon-1899-0288D1-nodesc</styleUrl>
        <Point>
          <coordinates>
            -98.9679139,22.7123001,0
          </coordinates>
        </Point>
      </Placemark>
      <Placemark>
        <name>Tres Marias Golf Club</name>
        <styleUrl>#icon-1899-0288D1-nodesc</styleUrl>
        <Point>
          <coordinates>
            -101.1078643,19.7080802,0
          </coordinates>
        </Point>
      </Placemark>
      <Placemark>
        <name>Club de Golf la Herradura</name>
        <styleUrl>#icon-1899-0288D1-nodesc</styleUrl>
        <Point>
          <coordinates>
            -100.2289548,25.5657087,0
          </coordinates>
        </Point>
      </Placemark>
      <Placemark>
        <name>Club de Golf Las Lomas Zapopan</name>
        <styleUrl>#icon-1899-0288D1-nodesc</styleUrl>
        <Point>
          <coordinates>
            -103.4369671,20.7146649,0
          </coordinates>
        </Point>
      </Placemark>
      <Placemark>
        <name>Club de Golf de Cuernavaca</name>
        <styleUrl>#icon-1899-0288D1-nodesc</styleUrl>
        <Point>
          <coordinates>
            -99.2376827,18.9092086,0
          </coordinates>
        </Point>
      </Placemark>
      <Placemark>
        <name><![CDATA[La Loma Residential & Golf Club]]></name>
        <styleUrl>#icon-1899-0288D1-nodesc</styleUrl>
        <Point>
          <coordinates>
            -101.0334395,22.1175543,0
          </coordinates>
        </Point>
      </Placemark>
      <Placemark>
        <name>Club De Golf Santa Gertrudis</name>
        <styleUrl>#icon-1899-0288D1-nodesc</styleUrl>
        <Point>
          <coordinates>
            -97.0823745,18.8493671,0
          </coordinates>
        </Point>
      </Placemark>
      <Placemark>
        <name>Rancho Contento Golf Course</name>
        <styleUrl>#icon-1899-0288D1-nodesc</styleUrl>
        <Point>
          <coordinates>
            -103.4802156,20.7120776,0
          </coordinates>
        </Point>
      </Placemark>
      <Placemark>
        <name>Yucatán Country Club</name>
        <styleUrl>#icon-1899-0288D1-nodesc</styleUrl>
        <Point>
          <coordinates>
            -89.5992616,21.1200864,0
          </coordinates>
        </Point>
      </Placemark>
      <Placemark>
        <name>Altozano El Nuevo Tabasco</name>
        <styleUrl>#icon-1899-0288D1-nodesc</styleUrl>
        <Point>
          <coordinates>
            -92.8034935,17.9478094,0
          </coordinates>
        </Point>
      </Placemark>
      <Placemark>
        <name>Asturian Center of Mexico Club Campestre Ecological</name>
        <styleUrl>#icon-1899-0288D1-nodesc</styleUrl>
        <Point>
          <coordinates>
            -98.8654535,18.9750961,0
          </coordinates>
        </Point>
      </Placemark>
      <Placemark>
        <name>Club de Golf EL Molino</name>
        <styleUrl>#icon-1899-0288D1-nodesc</styleUrl>
        <Point>
          <coordinates>
            -101.6950355,21.2025597,0
          </coordinates>
        </Point>
      </Placemark>
      <Placemark>
        <name>Club Campestre de la Ciudad de México</name>
        <styleUrl>#icon-1899-0288D1-nodesc</styleUrl>
        <Point>
          <coordinates>
            -99.143407,19.346586,0
          </coordinates>
        </Point>
      </Placemark>
      <Placemark>
        <name>Bosque Real Golf Course 9 Hole Course</name>
        <styleUrl>#icon-1899-0288D1-nodesc</styleUrl>
        <Point>
          <coordinates>
            -99.2763061,19.4318313,0
          </coordinates>
        </Point>
      </Placemark>
      <Placemark>
        <name>Yucatan Golf Club</name>
        <styleUrl>#icon-1899-0288D1-nodesc</styleUrl>
        <Point>
          <coordinates>
            -89.6211327,21.0942207,0
          </coordinates>
        </Point>
      </Placemark>
      <Placemark>
        <name>Club de Golf La Primavera</name>
        <styleUrl>#icon-1899-0288D1-nodesc</styleUrl>
        <Point>
          <coordinates>
            -107.3919989,24.7216206,0
          </coordinates>
        </Point>
      </Placemark>
    </Folder>
  </Document>
</kml>
